[{"OBJECT_NAME":"HERMES-3","OBJECT_ID":"2025-052BR","EPOCH":"2026-03-09T22:30:01.073952","MEAN_MOTION":15.30039786,"ECCENTRICITY":0.00079928,"INCLINATION":97.3987,"RA_OF_ASC_NODE":324.6131,"ARG_OF_PERICENTER":112.9583,"MEAN_ANOMALY":247.2502,"EPHEMERIS_TYPE":0,"CLASSIFICATION_TYPE":"U","NORAD_CAT_ID":63835,"ELEMENT_SET_NO":999,"REV_AT_EPOCH":5486,"BSTAR":0.0006995793,"MEAN_MOTION_DOT":0.00020316,"MEAN_MOTION_DDOT":0},{"OBJECT_NAME":"STARLINK-35974","OBJECT_ID":"2025-281Q","EPOCH":"2026-03-09T03:41:41.873568","MEAN_MOTION":15.27571682,"ECCENTRICITY":0.00018218,"INCLINATION":43.0029,"RA_OF_ASC_NODE":346.4961,"ARG_OF_PERICENTER":265.8098,"MEAN_ANOMALY":94.2545,"EPHEMERIS_TYPE":0,"CLASSIFICATION_TYPE":"U","NORAD_CAT_ID":66862,"ELEMENT_SET_NO":999,"REV_AT_EPOCH":1610,"BSTAR":0.0011520303,"MEAN_MOTION_DOT":0.00031567,"MEAN_MOTION_DDOT":0}]
